XRISM                   
1 57800U 23137A   24264.93074923  .00008378  00000+0  60333-3 0  9994
2 57800  31.0021 122.4980 0009234  73.8155 286.3496 15.02870095 57010
